window._tle = "PEGASUS\n1 42784U 17036V   21199.35241290  .00001484  00000-0  62953-4 0  9996\n2 42784  97.2481 247.4380 0013110  73.6590 286.6089 15.24562877226064";
